KUIPER-00061            
1 64521U 25134X   25248.58336806  .00044505  00000+0  16611-2 0  9997
2 64521  51.8783 333.7276 0007375  16.3903 252.7901 15.26935511  5545
KUIPER-00062            
1 64522U 25134Y   25248.61514506  .00013392  00000+0  88663-3 0  9994
2 64522  51.8874 338.2550 0010366  29.0508 331.1041 15.07563977 12578
KUIPER-00063            
1 64523U 25134Z   25248.58336806 -.01129257  00000+0 -97911-1 0  9991
2 64523  51.8886 337.5104 0007240 334.9745 232.1512 14.99832787  5918
KUIPER-00064            
1 64524U 25134AA  25248.58336806 -.00646994  00000+0 -41859-1 0  9993
2 64524  51.8944 335.9590 0005754  81.9702 237.2120 15.10056762  5607
KUIPER-00065            
1 64525U 25134AB  25248.58336806 -.00853058  00000+0 -80405-1 0  9995
2 64525  51.8949 339.5759 0010232  27.2053 137.8053 14.96237767  5552
KUIPER-00066            
1 64526U 25134AC  25248.53483405  .00012881  00000+0  64167-3 0  9997
2 64526  51.8907 336.1646 0005667  12.0600 348.0513 15.17878348 12590
KUIPER-00069            
1 64816U 25151A   25248.59969059  .00044487  00000+0  12192-2 0  9995
2 64816  51.8796  39.9195 0006389 326.9464  33.1122 15.36842081  9064
KUIPER-00070            
1 64817U 25151B   25248.58336806 -.00903052  00000+0 -77889-1 0  9990
2 64817  51.8951  45.1174 0007463   1.0940 324.6693 14.99840609  5797
